#aV2022  7 31  0  0  0.00000000     288 DD+AD WGS84 FIT  NGA
## 2221      0.00000000   300.00000000 59791 0.0000000000000
+   32     1  2  3  4  5  6  7  8  9 10 11 12 13 14 15 16 17
+         18 19 20 21 22 23 24 25 26 27 28 29 30 31 32  0  0
+          0  0  0  0  0  0  0  0  0  0  0  0  0  0  0  0  0
+          0  0  0  0  0  0  0  0  0  0  0  0  0  0  0  0  0
+          0  0  0  0  0  0  0  0  0  0  0  0  0  0  0  0  0
++         2  2  2  2  2  2  2  2  2  2  2  2  2  2  2  2  2
++         2  2  2  2  2  2  2  2  2  2  2  2  2  2  2  0  0
++         0  0  0  0  0  0  0  0  0  0  0  0  0  0  0  0  0
++         0  0  0  0  0  0  0  0  0  0  0  0  0  0  0  0  0
++         0  0  0  0  0  0  0  0  0  0  0  0  0  0  0  0  0
%c cc cc ccc ccc cccc cccc cccc cccc ccccc ccccc ccccc ccccc
%c cc cc ccc ccc cccc cccc cccc cccc ccccc ccccc ccccc ccccc
%f  0.0000000  0.000000000  0.00000000000  0.000000000000000
%f  0.0000000  0.000000000  0.00000000000  0.000000000000000
%i    0    0    0    0      0      0      0      0         0
%i    0    0    0    0      0      0      0      0         0
/*      NGA, ST. LOUIS,MO.                                  
/*   EPHEMERIS COMPUTED FROM 2 DAYS OF DATA                 
/*   EPOCHA v8 SMOOTHER                                     
/*   G2139 IERS2010 SATIGS SATAPC                           
*  2022  7 31 16 45  0.00000000
P  1  15306.459342  13402.007819 -17566.948510    310.756348                    
V  1 -21471.888119  -1526.333556 -19899.668215     -0.072020                    
P  2   4262.934596 -15159.426170  22058.580286   -650.250313                    
V  2  26434.359142    806.701214  -4531.679562      0.008795                    
P  3  12485.220095  23349.066786   2640.748517   -321.147004                    
V  3   -640.658707   4112.192577 -31756.715071     -0.090211                    
P  4   5322.147581  16260.013989  20299.235381   -139.067024                    
V  4 -16594.316302  19758.843159 -11568.825365      0.048707                    
P  5  -4273.581101 -24071.552412  10031.772396    -91.174002                    
V  5   8202.824602  10468.128224  28260.663358     -0.014050                    
P  6  21544.041009  -7007.009699  13987.263617    407.313825                    
V  6  17329.087085   3303.738719 -25070.128429      0.149225                    
P  7  25666.162733   6295.935449   5023.106512    316.973518                    
V  7  -6021.449818   1985.681250  30359.362489     -0.018060                    
P  8  -1059.318070  21109.419482 -15902.549963    -78.532410                    
V  8 -13176.776037  15528.983552  21889.448336     -0.015810                    
P  9  14579.701351   5558.695603  21427.915780   -313.274919                    
V  9 -15207.226886  22782.677596   4387.231455      0.040867                    
P 10 -15315.265590   1603.666567 -21529.150516   -511.642164                    
V 10 -11121.860821 -25265.728141   5697.235520     -0.134837                    
P 11  10249.432033 -13013.793672  20750.339883    -10.423259                    
V 11  25916.907662   4878.182061  -9767.636021     -0.002804                    
P 12  -9430.034441 -24883.906960    374.717779   -255.051904                    
V 12   2067.216255  -1605.175858 -31849.508970     -0.059401                    
P 13  11086.399603 -21848.212905 -10183.223376    359.095676                    
V 13  10485.199391  -7623.665000  28388.564643      0.072732                    
P 14  16236.482087    149.457289 -21030.524658   -110.775471                    
V 14   9443.619203  25014.992309   7363.100255      0.010266                    
P 15  -1913.097776 -21381.171807 -15866.877432    -41.005513                    
V 15  11571.661815 -16030.498001  21075.153974      0.030521                    
P 16  -2847.414548  21795.280992  14300.629672   -518.301546                    
V 16  -8365.317964 -16996.453829  24230.158088     -0.018880                    
P 17  20104.162289  -9719.768829 -13987.687607    643.247854                    
V 17 -10257.071588  15445.769923 -24663.344934      0.043861                    
P 18 -25641.908048  -5888.831912   4105.758664     96.370182                    
V 18   5439.912886  -1688.674328  31350.534923     -0.118040                    
P 19  20182.314314 -15828.404227  -6647.053860    191.051076                    
V 19  -3688.987675   7637.025864 -30768.873829      0.050385                    
P 20   4682.300164 -17977.773136  19067.089142    498.630108                    
V 20  14513.918944  19399.173065  14502.022878     -0.031392                    
P 21   6494.826801  14605.557286 -20705.671615    160.827253                    
V 21 -27622.110115    -21.035900  -7735.385781     -0.002370                    
P 22 -18705.421971  18339.397035  -3346.616029    301.833141                    
V 22    865.499258  -5550.458685 -31517.616312      0.065575                    
P 23 -17810.911836  -9338.329195 -17421.619293    -35.210359                    
V 23  -8294.828125 -20462.271133  19347.393210     -0.014585                    
P 24 -11728.638147 -14529.917004 -19341.135751    181.880455                    
V 24  23895.208432   -886.906813 -13631.660041     -0.107627                    
P 25 -16775.463797 -17118.530378  11444.726048    355.572026                    
V 25  -4036.775870 -14528.660925 -26706.840674      0.043460                    
P 26  -9032.493773  14620.703501  20089.263989    221.264757                    
V 26 -13190.156715 -22295.938377  10564.126525      0.020352                    
P 27 -11680.532007  22977.032246  -5693.282667    220.705332                    
V 27  -6268.151721   4149.380194  31148.971008     -0.006213                    
P 28  11995.022722  -9817.376093 -21091.824820    338.561842                    
V 28   9529.217419  26255.390761  -6416.988544      0.022461                    
P 29 -13711.864300  -6377.942250  21792.371887   -538.656533                    
V 29  17605.147306 -21416.906191   4721.057481     -0.035101                    
P 30  26031.967938  -1222.458469  -5695.880493   -535.106580                    
V 30   6897.325975   4107.411696  29900.456194     -0.006851                    
P 31 -20165.711821   8412.538679  15280.895261   -187.912345                    
V 31 -19098.267046  -4260.212361 -22199.935103     -0.014658                    
P 32 -19590.233824  12630.461126 -12404.733656   -191.109168                    
V 32   7196.424496 -14586.310854 -26093.396119     -0.103419                    
EOF
